{
  "norad_id": 66902,
  "name": "STARLINK-35983",
  "history": [
    {
      "epoch": "2026-03-28T19:47:27.632832",
      "apogee_km": 475.4300994063233,
      "perigee_km": 474.9757229702118,
      "latitude_deg": -18.22152435084537,
      "longitude_deg": -130.63596352003515,
      "semi_major_axis_km": 6853.339911188267,
      "eccentricity": 3.315e-05,
      "inclination_deg": 53.1607,
      "raan_deg": 295.296,
      "arg_perigee_deg": 142.0485,
      "mean_anomaly_deg": 218.0539,
      "mean_motion_rev_day": 15.30204072
    },
    {
      "epoch": "2026-03-28T22:55:34.183200",
      "apogee_km": 475.86933632383716,
      "perigee_km": 474.5480112779278,
      "latitude_deg": 52.397844985977585,
      "longitude_deg": -118.09535200009122,
      "semi_major_axis_km": 6853.345673800882,
      "eccentricity": 9.64e-05,
      "inclination_deg": 53.1592,
      "raan_deg": 294.6905,
      "arg_perigee_deg": 98.9243,
      "mean_anomaly_deg": 261.1867,
      "mean_motion_rev_day": 15.30202142
    }
  ]
}